{"type": "FeatureCollection", "features": [ {"type": "Feature", "properties": {"norad_id": 44804, "name": "CARTOSAT-3", "group": "resource", "lat": 75.3034519469535, "lon": 29.928494872643444, "alt_km": 493.5535855937069, "timestamp": "2025-12-26T11:25:44.877066+00:00", "meta": {"OBJECT_NAME": "CARTOSAT-3", "OBJECT_ID": "2019-081A", "EPOCH": "2025-12-26T04:46:05.235744", "MEAN_MOTION": 15.19263553, "ECCENTRICITY": 0.0013529, "INCLINATION": 97.456, "RA_OF_ASC_NODE": 59.6097, "ARG_OF_PERICENTER": 40.5133, "MEAN_ANOMALY": 319.7106, "EPHEMERIS_TYPE": 0, "CLASSIFICATION_TYPE": "U", "NORAD_CAT_ID": 44804, "ELEMENT_SET_NO": 999, "REV_AT_EPOCH": 33720, "BSTAR": 0.00015952, "MEAN_MOTION_DOT": 3.302e-05, "MEAN_MOTION_DDOT": 0}, "tle": {"line1": "1 44804U 19081A   25360.19867171  .00003302  00000+0  15952-3 0  9997", "line2": "2 44804  97.4560  59.6097 0013529  40.5133 319.7106 15.19263553337207"}}, "geometry": {"type": "Point", "coordinates": [29.928494872643444, 75.3034519469535]}}, {"type": "Feature", "properties": {"norad_id": 44819, "name": "GAOFEN-12 01", "group": "resource", "lat": 75.70660016340854, "lon": -26.21207821974614, "alt_km": 620.2068591665293, "timestamp": "2025-12-26T11:25:44.877075+00:00", "meta": {"OBJECT_NAME": "GAOFEN-12 01", "OBJECT_ID": "2019-082A", "EPOCH": "2025-12-26T04:35:26.072736", "MEAN_MOTION": 14.80672443, "ECCENTRICITY": 0.0002297, "INCLINATION": 97.8125, "RA_OF_ASC_NODE": 6.1192, "ARG_OF_PERICENTER": 175.2979, "MEAN_ANOMALY": 184.8255, "EPHEMERIS_TYPE": 0, "CLASSIFICATION_TYPE": "U", "NORAD_CAT_ID": 44819, "ELEMENT_SET_NO": 999, "REV_AT_EPOCH": 32849, "BSTAR": 6.9735e-05, "MEAN_MOTION_DOT": 4.85e-06, "MEAN_MOTION_DDOT": 0}, "tle": {"line1": "1 44819U 19082A   25360.19127399  .00000485  00000+0  69735-4 0  9993", "line2": "2 44819  97.8125   6.1192 0002297 175.2979 184.8255 14.80672443328497"}}, "geometry": {"type": "Point", "coordinates": [-26.21207821974614, 75.70660016340854]}}, {"type": "Feature", "properties": {"norad_id": 44873, "name": "CSG-1", "group": "resource", "lat": -79.23732039226479, "lon": -45.18094790169285, "alt_km": 630.8724773189315, "timestamp": "2025-12-26T11:25:44.877084+00:00", "meta": {"OBJECT_NAME": "CSG-1", "OBJECT_ID": "2019-092A", "EPOCH": "2025-12-26T03:46:00.259680", "MEAN_MOTION": 14.82162022, "ECCENTRICITY": 0.0001455, "INCLINATION": 97.8805, "RA_OF_ASC_NODE": 181.2791, "ARG_OF_PERICENTER": 85.0554, "MEAN_ANOMALY": 275.0825, "EPHEMERIS_TYPE": 0, "CLASSIFICATION_TYPE": "U", "NORAD_CAT_ID": 44873, "ELEMENT_SET_NO": 999, "REV_AT_EPOCH": 32584, "BSTAR": 8.3282e-05, "MEAN_MOTION_DOT": 6.11e-06, "MEAN_MOTION_DDOT": 0}, "tle": {"line1": "1 44873U 19092A   25360.15694745  .00000611  00000+0  83282-4 0  9998", "line2": "2 44873  97.8805 181.2791 0001455  85.0554 275.0825 14.82162022325845"}}, "geometry": {"type": "Point", "coordinates": [-45.18094790169285, -79.23732039226479]}}, {"type": "Feature", "properties": {"norad_id": 46277, "name": "NEMO-HD", "group": "resource", "lat": 59.09074890198161, "lon": 47.17706997738237, "alt_km": 437.9573700515948, "timestamp": "2025-12-26T11:25:44.877093+00:00", "meta": {"OBJECT_NAME": "NEMO-HD", "OBJECT_ID": "2020-061F", "EPOCH": "2025-12-26T04:56:05.497152", "MEAN_MOTION": 15.40602954, "ECCENTRICITY": 0.0001013, "INCLINATION": 97.2188, "RA_OF_ASC_NODE": 59.1325, "ARG_OF_PERICENTER": 53.9832, "MEAN_ANOMALY": 306.1509, "EPHEMERIS_TYPE": 0, "CLASSIFICATION_TYPE": "U", "NORAD_CAT_ID": 46277, "ELEMENT_SET_NO": 999, "REV_AT_EPOCH": 29531, "BSTAR": 0.00026335, "MEAN_MOTION_DOT": 0.00010637, "MEAN_MOTION_DDOT": 0}, "tle": {"line1": "1 46277U 20061F   25360.20561918  .00010637  00000+0  26335-3 0  9991", "line2": "2 46277  97.2188  59.1325 0001013  53.9832 306.1509 15.40602954295313"}}, "geometry": {"type": "Point", "coordinates": [47.17706997738237, 59.09074890198161]}}, {"type": "Feature", "properties": {"norad_id": 46984, "name": "SENTINEL-6A", "group": "resource", "lat": 62.74308326339388, "lon": -166.56059683669233, "alt_km": 1336.5807945709412, "timestamp": "2025-12-26T11:25:44.877102+00:00", "meta": {"OBJECT_NAME": "SENTINEL-6A", "OBJECT_ID": "2020-086A", "EPOCH": "2025-12-25T18:09:57.449088", "MEAN_MOTION": 12.80930775, "ECCENTRICITY": 0.00077549, "INCLINATION": 66.0401, "RA_OF_ASC_NODE": 135.2711, "ARG_OF_PERICENTER": 269.4393, "MEAN_ANOMALY": 90.5733, "EPHEMERIS_TYPE": 0, "CLASSIFICATION_TYPE": "U", "NORAD_CAT_ID": 46984, "ELEMENT_SET_NO": 999, "REV_AT_EPOCH": 23811, "BSTAR": 4.727934e-05, "MEAN_MOTION_DOT": -5e-07, "MEAN_MOTION_DDOT": 0}, "tle": {"line1": "1 46984U 20086A   25359.75691492 -.00000050  00000+0  47279-4 0  9992", "line2": "2 46984  66.0401 135.2711 0007754 269.4393  90.5733 12.80930775238113"}}, "geometry": {"type": "Point", "coordinates": [-166.56059683669233, 62.74308326339388]}}, {"type": "Feature", "properties": {"norad_id": 48079, "name": "GAOFEN-12 02", "group": "resource", "lat": 81.9970001785819, "lon": -98.7271280676447, "alt_km": 617.3081097634158, "timestamp": "2025-12-26T11:25:44.877111+00:00", "meta": {"OBJECT_NAME": "GAOFEN-12 02", "OBJECT_ID": "2021-026A", "EPOCH": "2025-12-26T04:32:06.263232", "MEAN_MOTION": 14.80690492, "ECCENTRICITY": 0.000354, "INCLINATION": 97.9858, "RA_OF_ASC_NODE": 354.1309, "ARG_OF_PERICENTER": 74.168, "MEAN_ANOMALY": 285.9922, "EPHEMERIS_TYPE": 0, "CLASSIFICATION_TYPE": "U", "NORAD_CAT_ID": 48079, "ELEMENT_SET_NO": 999, "REV_AT_EPOCH": 25616, "BSTAR": 7.3158e-05, "MEAN_MOTION_DOT": 5.1e-06, "MEAN_MOTION_DDOT": 0}, "tle": {"line1": "1 48079U 21026A   25360.18896138  .00000510  00000+0  73158-4 0  9992", "line2": "2 48079  97.9858 354.1309 0003540  74.1680 285.9922 14.80690492256169"}}, "geometry": {"type": "Point", "coordinates": [-98.7271280676447, 81.9970001785819]}}, {"type": "Feature", "properties": {"norad_id": 48268, "name": "PLEIADES NEO 3", "group": "resource", "lat": -26.01984964310113, "lon": -111.16390869945951, "alt_km": 630.1719327705114, "timestamp": "2025-12-26T11:25:44.877120+00:00", "meta": {"OBJECT_NAME": "PLEIADES NEO 3", "OBJECT_ID": "2021-034A", "EPOCH": "2025-12-26T04:01:06.458304", "MEAN_MOTION": 14.81672611, "ECCENTRICITY": 0.000134, "INCLINATION": 97.8942, "RA_OF_ASC_NODE": 72.4156, "ARG_OF_PERICENTER": 90.5491, "MEAN_ANOMALY": 269.5876, "EPHEMERIS_TYPE": 0, "CLASSIFICATION_TYPE": "U", "NORAD_CAT_ID": 48268, "ELEMENT_SET_NO": 999, "REV_AT_EPOCH": 25203, "BSTAR": 3.7812e-05, "MEAN_MOTION_DOT": 2.46e-06, "MEAN_MOTION_DDOT": 0}, "tle": {"line1": "1 48268U 21034A   25360.16743586  .00000246  00000+0  37812-4 0  9990", "line2": "2 48268  97.8942  72.4156 0001340  90.5491 269.5876 14.81672611252032"}}, "geometry": {"type": "Point", "coordinates": [-111.16390869945951, -26.01984964310113]}}, {"type": "Feature", "properties": {"norad_id": 49070, "name": "PLEIADES NEO 4", "group": "resource", "lat": 25.83819788558579, "lon": 68.86326660379946, "alt_km": 622.7815421584264, "timestamp": "2025-12-26T11:25:44.877132+00:00", "meta": {"OBJECT_NAME": "PLEIADES NEO 4", "OBJECT_ID": "2021-073E", "EPOCH": "2025-12-26T03:12:28.021824", "MEAN_MOTION": 14.81671012, "ECCENTRICITY": 0.0001391, "INCLINATION": 97.8943, "RA_OF_ASC_NODE": 72.3783, "ARG_OF_PERICENTER": 90.3514, "MEAN_ANOMALY": 269.7858, "EPHEMERIS_TYPE": 0, "CLASSIFICATION_TYPE": "U", "NORAD_CAT_ID": 49070, "ELEMENT_SET_NO": 999, "REV_AT_EPOCH": 23574, "BSTAR": -0.00011023, "MEAN_MOTION_DOT": -9.19e-06, "MEAN_MOTION_DDOT": 0}, "tle": {"line1": "1 49070U 21073E   25360.13365766 -.00000919  00000+0 -11023-3 0  9996", "line2": "2 49070  97.8943  72.3783 0001391  90.3514 269.7858 14.81671012235745"}}, "geometry": {"type": "Point", "coordinates": [68.86326660379946, 25.83819788558579]}}, {"type": "Feature", "properties": {"norad_id": 49260, "name": "LANDSAT 9", "group": "resource", "lat": -81.786875600892, "lon": 157.99836102418075, "alt_km": 710.6487121252039, "timestamp": "2025-12-26T11:25:44.877141+00:00", "meta": {"OBJECT_NAME": "LANDSAT 9", "OBJECT_ID": "2021-088A", "EPOCH": "2025-12-26T03:36:04.167936", "MEAN_MOTION": 14.5711124, "ECCENTRICITY": 0.000111, "INCLINATION": 98.2076, "RA_OF_ASC_NODE": 68.0655, "ARG_OF_PERICENTER": 93.5526, "MEAN_ANOMALY": 266.5799, "EPHEMERIS_TYPE": 0, "CLASSIFICATION_TYPE": "U", "NORAD_CAT_ID": 49260, "ELEMENT_SET_NO": 999, "REV_AT_EPOCH": 22580, "BSTAR": 0.00010352, "MEAN_MOTION_DOT": 4.21e-06, "MEAN_MOTION_DDOT": 0}, "tle": {"line1": "1 49260U 21088A   25360.15004824  .00000421  00000+0  10352-3 0  9990", "line2": "2 49260  98.2076  68.0655 0001110  93.5526 266.5799 14.57111240225805"}}, "geometry": {"type": "Point", "coordinates": [157.99836102418075, -81.786875600892]}}, {"type": "Feature", "properties": {"norad_id": 51444, "name": "CSG-2", "group": "resource", "lat": 79.18224579747576, "lon": 135.13359935986742, "alt_km": 614.1655753101531, "timestamp": "2025-12-26T11:25:44.877150+00:00", "meta": {"OBJECT_NAME": "CSG-2", "OBJECT_ID": "2022-008A", "EPOCH": "2025-12-26T04:34:37.390656", "MEAN_MOTION": 14.82155616, "ECCENTRICITY": 0.000144, "INCLINATION": 97.8806, "RA_OF_ASC_NODE": 181.3108, "ARG_OF_PERICENTER": 82.7467, "MEAN_ANOMALY": 277.391, "EPHEMERIS_TYPE": 0, "CLASSIFICATION_TYPE": "U", "NORAD_CAT_ID": 51444, "ELEMENT_SET_NO": 999, "REV_AT_EPOCH": 21096, "BSTAR": 4.1196e-05, "MEAN_MOTION_DOT": 2.76e-06, "MEAN_MOTION_DDOT": 0}, "tle": {"line1": "1 51444U 22008A   25360.19071054  .00000276  00000+0  41196-4 0  9992", "line2": "2 51444  97.8806 181.3108 0001440  82.7467 277.3910 14.82155616210969"}}, "geometry": {"type": "Point", "coordinates": [135.13359935986742, 79.18224579747576]}}]}